[{"OBJECT_NAME":"STARLINK-31761","OBJECT_ID":"2024-080Q","EPOCH":"2026-03-09T22:00:01.999584","MEAN_MOTION":15.58768604,"ECCENTRICITY":0.00225253,"INCLINATION":42.9949,"RA_OF_ASC_NODE":28.7749,"ARG_OF_PERICENTER":171.9936,"MEAN_ANOMALY":312.0399,"EPHEMERIS_TYPE":0,"CLASSIFICATION_TYPE":"U","NORAD_CAT_ID":59615,"ELEMENT_SET_NO":999,"REV_AT_EPOCH":590,"BSTAR":0.0053316236,"MEAN_MOTION_DOT":0.00451126,"MEAN_MOTION_DDOT":0},{"OBJECT_NAME":"SL-8 R\/B","OBJECT_ID":"1981-003B","EPOCH":"2026-03-09T16:04:15.381408","MEAN_MOTION":15.1097362,"ECCENTRICITY":0.02621852,"INCLINATION":82.9386,"RA_OF_ASC_NODE":290.0424,"ARG_OF_PERICENTER":178.7086,"MEAN_ANOMALY":181.4887,"EPHEMERIS_TYPE":0,"CLASSIFICATION_TYPE":"U","NORAD_CAT_ID":12139,"ELEMENT_SET_NO":999,"REV_AT_EPOCH":31467,"BSTAR":0.00054115758,"MEAN_MOTION_DOT":0.00021105,"MEAN_MOTION_DDOT":0}]
